     2.100          NAVIGATION                              RINEX VERSION / TYPE
fic2rin                                 09/10/2014 00:14:12 PGM / RUN BY / DATE
                                                            END OF HEADER
 7 14  9 10  0  0  0.0  .389835797250D-03  .420641299570D-11  .000000000000D+00
     .980000000000D+02 -.914687500000D+02  .406659796156D-08 -.206206583535D+01
    -.485777854919D-05  .791424734052D-02  .114366412163D-04  .515361739922D+04
     .259200000000D+06  .521540641785D-07 -.414066928372D+00 -.856816768646D-07
     .972806685417D+00  .163625000000D+03 -.278912976730D+01 -.785604152138D-08
    -.575023952056D-09  .100000000000D+01  .180900000000D+04  .000000000000D+00
     .240000000000D+01  .000000000000D+00 -.107102096081D-07  .980000000000D+02
     .252006000000D+06  .400000000000D+01
 8 14  9 10  0  0  0.0  .154804438353D-04  .113686837722D-12  .000000000000D+00
     .157000000000D+03 -.794375000000D+02  .341907098946D-08 -.207390127271D+01
    -.428035855293D-05  .145830434049D-01  .128373503685D-04  .515218538284D+04
     .259200000000D+06  .949949026108D-07 -.312355832908D+00 -.175088644028D-06
     .996290319788D+00  .147968750000D+03 -.271691134754D+01 -.746245369829D-08
    -.441804117201D-09  .100000000000D+01  .180900000000D+04  .000000000000D+00
     .340000000000D+01  .000000000000D+00 -.419095158577D-08  .157000000000D+03
     .252006000000D+06  .400000000000D+01
 9 14  9 10  0  0  0.0  .203032977879D-04 -.909494701773D-12  .000000000000D+00
     .270000000000D+02  .187500000000D+02  .516807241382D-08 -.609370724177D+00
     .907108187675D-06  .276992598083D-02  .232644379139D-05  .515989635086D+04
     .259200000000D+06  .558793544769D-08 -.148864458649D+01 -.353902578354D-07
     .959190225757D+00  .331218750000D+03 -.309384728505D+01 -.863821695927D-08
     .442875590403D-10  .100000000000D+01  .180900000000D+04  .000000000000D+00
     .485000000000D+01  .630000000000D+02  .372529029846D-08  .270000000000D+02
     .252006000000D+06  .400000000000D+01
10 14  9 10  0  0  0.0 -.141330529004D-03 -.147792889038D-11  .000000000000D+00
     .103000000000D+03  .814375000000D+02  .494199156807D-08  .177355401352D+01
     .420585274696D-05  .138759722468D-01  .131689012051D-04  .515362544823D+04
     .259200000000D+06 -.348314642906D-06 -.252154014633D+01 -.558793544769D-07
     .942071045749D+00  .116656250000D+03  .880665662094D+00 -.829463121897D-08
     .506092509356D-09  .100000000000D+01  .180900000000D+04  .000000000000D+00
     .340000000000D+01  .000000000000D+00 -.279396772385D-08  .103000000000D+03
     .252006000000D+06  .400000000000D+01
11 14  9 10  0  0  0.0 -.520018395036D-03 -.295585778076D-11  .000000000000D+00
     .740000000000D+02 -.996562500000D+02  .635240746041D-08 -.193642531927D+01
    -.503286719322D-05  .154901702190D-01  .517442822456D-05  .515370685577D+04
     .259200000000D+06  .227242708206D-06  .237709274455D+01  .987201929092D-07
     .891326867776D+00  .233531250000D+03  .132989483153D+01 -.893144345904D-08
    -.363229415677D-09  .100000000000D+01  .180900000000D+04  .000000000000D+00
     .240000000000D+01  .000000000000D+00 -.121071934700D-07  .740000000000D+02
     .252006000000D+06  .400000000000D+01
12 14  9 10  0  0  0.0  .230866484344D-03  .261479726760D-11  .000000000000D+00
     .150000000000D+02  .680625000000D+02  .361907932061D-08 -.250189697181D+01
     .361725687981D-05  .507445121184D-02  .119414180517D-04  .515355412483D+04
     .259200000000D+06  .745058059692D-08  .649740595184D+00 -.540167093277D-07
     .988424174166D+00  .162937500000D+03  .502753926039D+00 -.756460081027D-08
     .532522181686D-09  .100000000000D+01  .180900000000D+04  .000000000000D+00
     .240000000000D+01  .000000000000D+00 -.121071934700D-07  .150000000000D+02
     .252006000000D+06  .400000000000D+01
13 14  9 10  0  0  0.0 -.398857519031D-04 -.386535248253D-11  .000000000000D+00
     .560000000000D+02 -.456250000000D+01  .482020078071D-08  .249054661029D+00
    -.391155481339D-06  .525473419111D-02  .276416540146D-05  .515376572227D+04
     .259200000000D+06 -.428408384323D-07 -.137774925036D+01 -.819563865662D-07
     .976086756948D+00  .334312500000D+03  .232525580188D+01 -.854607026384D-08
    -.122505102829D-09  .100000000000D+01  .180900000000D+04  .000000000000D+00
     .240000000000D+01  .000000000000D+00 -.111758708954D-07  .560000000000D+02
     .252006000000D+06  .400000000000D+01
14 14  9 10  0  0  0.0  .136466231197D-03 -.375166564481D-11  .000000000000D+00
     .860000000000D+02  .700000000000D+01  .498449333844D-08  .602609403546D+00
     .419095158577D-06  .790433783550D-02  .282190740108D-05  .515370898438D+04
     .259200000000D+06 -.298023223877D-07 -.141038891010D+01  .763684511185D-07
     .968618940513D+00  .331218750000D+03 -.198313118357D+01 -.870036240502D-08
    -.118219210019D-09  .100000000000D+01  .180900000000D+04  .000000000000D+00
     .340000000000D+01  .000000000000D+00 -.884756445885D-08  .860000000000D+02
     .252006000000D+06  .400000000000D+01
15 14  9 10  0  0  0.0 -.201921910048D-03 -.227373675443D-11  .000000000000D+00
     .101000000000D+03  .301875000000D+02  .581452791271D-08 -.182110435459D-01
     .149756669998D-05  .649709219579D-02  .225380063057D-05  .515375157928D+04
     .259200000000D+06  .558793544769D-08 -.152597180733D+01  .782310962677D-07
     .935229546967D+00  .318843750000D+03  .277795547528D+00 -.905537719281D-08
     .260725145963D-10  .100000000000D+01  .180900000000D+04  .000000000000D+00
     .240000000000D+01  .000000000000D+00 -.102445483208D-07  .101000000000D+03
     .252006000000D+06  .400000000000D+01
16 14  9 10  0  0  0.0 -.195920933038D-03  .250111042988D-11  .000000000000D+00
     .850000000000D+02  .829062500000D+02  .365372362083D-08  .164936617362D+01
     .442750751972D-05  .765861617401D-02  .115763396025D-04  .515365965271D+04
     .259200000000D+06 -.987201929092D-07  .668330037120D+00  .540167093277D-07
     .988994144604D+00  .172937500000D+03  .238894188799D+00 -.766674792225D-08
     .372515516767D-09  .100000000000D+01  .180900000000D+04  .000000000000D+00
     .240000000000D+01  .000000000000D+00 -.102445483208D-07  .850000000000D+02
     .252006000000D+06  .400000000000D+01
17 14  9 10  0  0  0.0 -.122748780996D-03 -.272848410532D-11  .000000000000D+00
     .250000000000D+02  .100000000000D+02  .494734893408D-08  .746592615562D+00
     .393018126488D-06  .945285521448D-02  .258907675743D-05  .515363503838D+04
     .259200000000D+06 -.158324837685D-06  .169899092083D+01  .167638063431D-07
     .969331990191D+00  .333156250000D+03 -.209643536207D+01 -.869750514314D-08
     .600024993449D-10  .100000000000D+01  .180900000000D+04  .000000000000D+00
     .240000000000D+01  .000000000000D+00 -.102445483208D-07  .250000000000D+02
     .252006000000D+06  .400000000000D+01
18 14  9 10  0  0  0.0  .343779101968D-03  .250111042988D-11  .000000000000D+00
     .650000000000D+02  .633125000000D+02  .513592821774D-08  .225884633139D+01
     .316835939884D-05  .154964937828D-01  .120736658573D-04  .515373303223D+04
     .259200000000D+06  .465661287308D-07 -.254574339595D+01 -.352039933205D-06
     .925856158311D+00  .125500000000D+03 -.201233398206D+01 -.812283834882D-08
     .416088760338D-09  .100000000000D+01  .180900000000D+04  .000000000000D+00
     .240000000000D+01  .000000000000D+00 -.107102096081D-07  .650000000000D+02
     .252006000000D+06  .400000000000D+01
19 14  9 10  0  0  0.0 -.477905850857D-03 -.193267624127D-11  .000000000000D+00
     .480000000000D+02 -.765625000000D+01  .502056626959D-08 -.109717591984D+00
    -.229105353355D-06  .105943339877D-01  .236183404922D-05  .515364035034D+04
     .259200000000D+06  .128522515297D-06  .174949811632D+01  .633299350739D-07
     .966447485857D+00  .336468750000D+03  .498464199652D+00 -.873429238977D-08
     .632169189527D-10  .100000000000D+01  .180900000000D+04  .000000000000D+00
     .240000000000D+01  .000000000000D+00 -.149011611938D-07  .480000000000D+02
     .252006000000D+06  .400000000000D+01
20 14  9 10  0  0  0.0  .232023652643D-03  .443378667114D-11  .000000000000D+00
     .540000000000D+02  .826250000000D+02  .505449625434D-08  .276448177302D+01
     .415183603764D-05  .592827820219D-02  .129528343678D-04  .515374451828D+04
     .259200000000D+06  .447034835815D-07 -.259867543521D+01 -.484287738800D-07
     .926969288289D+00  .108593750000D+03  .132926640727D+01 -.822034241026D-08
     .405731186047D-09  .100000000000D+01  .180900000000D+04  .000000000000D+00
     .240000000000D+01  .000000000000D+00 -.791624188423D-08  .540000000000D+02
     .252006000000D+06  .400000000000D+01
21 14  9 10  0  0  0.0 -.383138656616D-03 -.204636307899D-11  .000000000000D+00
     .190000000000D+02 -.111906250000D+03  .506628245957D-08 -.308024438079D+01
    -.595487654209D-05  .216343177017D-01  .969693064690D-05  .515370635033D+04
     .259200000000D+06  .221654772758D-06  .269339060333D+01 -.288709998131D-06
     .933113841194D+00  .176125000000D+03 -.199665387018D+01 -.807390773924D-08
    -.410374236591D-09  .100000000000D+01  .180900000000D+04  .000000000000D+00
     .240000000000D+01  .000000000000D+00 -.111758708954D-07  .190000000000D+02
     .252006000000D+06  .400000000000D+01
22 14  9 10  0  0  0.0  .266479328275D-03  .329691829393D-11  .000000000000D+00
     .550000000000D+02  .674687500000D+02  .530236372188D-08  .170765905716D+01
     .353157520294D-05  .736925716046D-02  .115595757961D-04  .515373315239D+04
     .259200000000D+06 -.201165676117D-06 -.254406184769D+01 -.147148966789D-06
     .923641807972D+00  .139250000000D+03 -.205057015926D+01 -.844070873226D-08
     .437875382124D-09  .100000000000D+01  .180900000000D+04  .000000000000D+00
     .340000000000D+01  .000000000000D+00 -.172294676304D-07  .550000000000D+02
     .252006000000D+06  .400000000000D+01
